ONEWEB-0230             
1 48769U 21045C   24003.74181044  .00000148  00000+0  35860-3 0  9991
2 48769  87.8995  77.5074 0001613 106.8626 253.2681 13.15545930126936
ONEWEB-0237             
1 48770U 21045D   24003.73070806  .00000174  00000+0  42771-3 0  9993
2 48770  87.9002  77.4310 0002092 115.1700 244.9648 13.15550517126654
ONEWEB-0235             
1 48771U 21045E   24003.70535720  .00000004  00000+0 -23110-4 0  9992
2 48771  87.8989  77.4598 0002258 123.0016 237.1331 13.15549801126644
ONEWEB-0242             
1 48772U 21045F   24003.69901904 -.00000156  00000+0 -44800-3 0  9999
2 48772  87.8987  77.4507 0001796 111.2593 248.8729 13.15549308126684
ONEWEB-0241             
1 48773U 21045G   24003.76240302 -.00000063  00000+0 -20163-3 0  9999
2 48773  87.8997  77.4697 0002265 103.7110 256.4272 13.15546790126601
ONEWEB-0243             
1 48774U 21045H   24003.71804129  .00000146  00000+0  35499-3 0  9996
2 48774  87.8999  77.4360 0001950 117.4876 242.6453 13.15547572126621
ONEWEB-0222             
1 48775U 21045J   24003.70854581  .00000054  00000+0  10983-3 0  9992
2 48775  87.8988  77.4630 0002116 109.1709 250.9650 13.15551130126668
ONEWEB-0244             
1 48776U 21045K   24003.72755113  .00000189  00000+0  46783-3 0  9992
2 48776  87.8990  77.4402 0001612 111.5534 248.5768 13.15546014127234
